start=new Date('2022-12-30T00:00:00.000Z').valueOf();
sats=[{"APOAPSIS":"548.788","OBJECT_ID":"2020-019G","BSTAR":"-0.00075389000000","EPOCH":"2022-12-29T17:04:32.733408","ECCENTRICITY":"0.00023980","RCS_SIZE":"LARGE","ELEMENT_SET_NO":"999","OBJECT_NAME":"STARLINK-1262","DECAY_DATE":null,"FILE":"3726016","COUNTRY_CODE":"US","CLASSIFICATION_TYPE":"U","ARG_OF_PERICENTER":"34.6010","SITE":"AFETR","TLE_LINE2":"2 45366  53.0572   0.9013 0002398  34.6010 325.5135 15.06428206153992","MEAN_MOTION_DDOT":"0.0000000000000","LAUNCH_DATE":"2020-03-18","NORAD_CAT_ID":"45366","TIME_SYSTEM":"UTC","REV_AT_EPOCH":"15399","GP_ID":"221746899","RA_OF_ASC_NODE":"0.9013","MEAN_ELEMENT_THEORY":"SGP4","TLE_LINE1":"1 45366U 20019G   22363.71148997 -.00011502  00000-0 -75389-3 0  9994","MEAN_MOTION_DOT":"-0.00011502","INCLINATION":"53.0572","SEMIMAJOR_AXIS":"6925.262","OBJECT_TYPE":"PAYLOAD","MEAN_MOTION":"15.06428206","MEAN_ANOMALY":"325.5135","CENTER_NAME":"EARTH","EPHEMERIS_TYPE":"0","PERIAPSIS":"545.466","PERIOD":"95.590","REF_FRAME":"TEME"},{"MEAN_MOTION_DOT":"-0.00004831","INCLINATION":"53.0569","TLE_LINE1":"1 45367U 20019H   22363.53457383 -.00004831  00000-0 -30577-3 0  9994","MEAN_ELEMENT_THEORY":"SGP4","RA_OF_ASC_NODE":"1.6962","MEAN_ANOMALY":"315.2340","MEAN_MOTION":"15.06380936","OBJECT_TYPE":"PAYLOAD","SEMIMAJOR_AXIS":"6925.407","EPHEMERIS_TYPE":"0","CENTER_NAME":"EARTH","REF_FRAME":"TEME","PERIOD":"95.593","PERIAPSIS":"545.850","OBJECT_ID":"2020-019H","BSTAR":"-0.00030577000000","APOAPSIS":"548.694","OBJECT_NAME":"STARLINK-1273","DECAY_DATE":null,"RCS_SIZE":"LARGE","ELEMENT_SET_NO":"999","ECCENTRICITY":"0.00020530","EPOCH":"2022-12-29T12:49:47.178912","ARG_OF_PERICENTER":"44.8815","CLASSIFICATION_TYPE":"U","COUNTRY_CODE":"US","FILE":"3725790","REV_AT_EPOCH":"15396","GP_ID":"221735359","TIME_SYSTEM":"UTC","NORAD_CAT_ID":"45367","SITE":"AFETR","TLE_LINE2":"2 45367  53.0569   1.6962 0002053  44.8815 315.2340 15.06380936153962","MEAN_MOTION_DDOT":"0.0000000000000","LAUNCH_DATE":"2020-03-18"},{"CENTER_NAME":"EARTH","EPHEMERIS_TYPE":"0","PERIOD":"95.593","REF_FRAME":"TEME","PERIAPSIS":"545.268","TLE_LINE1":"1 45368U 20019J   22363.43874533 -.00001230  00000-0 -63654-4 0  9997","MEAN_ELEMENT_THEORY":"SGP4","RA_OF_ASC_NODE":"2.1382","INCLINATION":"53.0577","MEAN_MOTION_DOT":"-0.00001230","OBJECT_TYPE":"PAYLOAD","SEMIMAJOR_AXIS":"6925.393","MEAN_ANOMALY":"324.2331","MEAN_MOTION":"15.06385490","COUNTRY_CODE":"US","FILE":"3725790","ARG_OF_PERICENTER":"35.8851","CLASSIFICATION_TYPE":"U","NORAD_CAT_ID":"45368","MEAN_MOTION_DDOT":"0.0000000000000","LAUNCH_DATE":"2020-03-18","TLE_LINE2":"2 45368  53.0577   2.1382 0002873  35.8851 324.2331 15.06385490153953","SITE":"AFETR","GP_ID":"221736109","REV_AT_EPOCH":"15395","TIME_SYSTEM":"UTC","BSTAR":"-0.00006365400000","OBJECT_ID":"2020-019J","APOAPSIS":"549.248","ECCENTRICITY":"0.00028730","EPOCH":"2022-12-29T10:31:47.596512","DECAY_DATE":null,"OBJECT_NAME":"STARLINK-1276","RCS_SIZE":"LARGE","ELEMENT_SET_NO":"999"},{"APOAPSIS":"548.223","BSTAR":"0.00056933000000","OBJECT_ID":"2020-019K","RCS_SIZE":"LARGE","ELEMENT_SET_NO":"999","DECAY_DATE":null,"OBJECT_NAME":"STARLINK-1277","EPOCH":"2022-12-29T12:05:56.844096","ECCENTRICITY":"0.00014660","CLASSIFICATION_TYPE":"U","ARG_OF_PERICENTER":"79.9192","FILE":"3725790","COUNTRY_CODE":"US","TIME_SYSTEM":"UTC","REV_AT_EPOCH":"15396","GP_ID":"221734360","MEAN_MOTION_DDOT":"0.0000000000000","LAUNCH_DATE":"2020-03-18","SITE":"AFETR","TLE_LINE2":"2 45369  53.0545   1.8316 0001466  79.9192 280.1962 15.06401778153965","NORAD_CAT_ID":"45369","INCLINATION":"53.0545","MEAN_MOTION_DOT":"0.00008209","MEAN_ELEMENT_THEORY":"SGP4","RA_OF_ASC_NODE":"1.8316","TLE_LINE1":"1 45369U 20019K   22363.50413014  .00008209  00000-0  56933-3 0  9991","MEAN_MOTION":"15.06401778","MEAN_ANOMALY":"280.1962","SEMIMAJOR_AXIS":"6925.343","OBJECT_TYPE":"PAYLOAD","EPHEMERIS_TYPE":"0","CENTER_NAME":"EARTH","PERIAPSIS":"546.193","REF_FRAME":"TEME","PERIOD":"95.592"},{"EPHEMERIS_TYPE":"0","CENTER_NAME":"EARTH","PERIAPSIS":"545.741","REF_FRAME":"TEME","PERIOD":"95.593","MEAN_MOTION_DOT":"-0.00001890","INCLINATION":"53.0535","MEAN_ELEMENT_THEORY":"SGP4","RA_OF_ASC_NODE":"3.6743","TLE_LINE1":"1 45370U 20019L   22363.09594949 -.00001890  00000-0 -10806-3 0  9994","MEAN_MOTION":"15.06387998","MEAN_ANOMALY":"317.0074","SEMIMAJOR_AXIS":"6925.385","OBJECT_TYPE":"PAYLOAD","CLASSIFICATION_TYPE":"U","ARG_OF_PERICENTER":"43.1086","FILE":"3725790","COUNTRY_CODE":"US","TIME_SYSTEM":"UTC","REV_AT_EPOCH":"15390","GP_ID":"221734609","SITE":"AFETR","TLE_LINE2":"2 45370  53.0535   3.6743 0002179  43.1086 317.0074 15.06387998153902","MEAN_MOTION_DDOT":"0.0000000000000","LAUNCH_DATE":"2020-03-18","NORAD_CAT_ID":"45370","APOAPSIS":"548.759","OBJECT_ID":"2020-019L","BSTAR":"-0.00010806000000","ELEMENT_SET_NO":"999","RCS_SIZE":"LARGE","OBJECT_NAME":"STARLINK-1281","DECAY_DATE":null,"EPOCH":"2022-12-29T02:18:10.035936","ECCENTRICITY":"0.00021790"},{"CENTER_NAME":"EARTH","EPHEMERIS_TYPE":"0","PERIOD":"95.593","REF_FRAME":"TEME","PERIAPSIS":"545.385","TLE_LINE1":"1 45371U 20019M   22363.38988077 -.00001319  00000-0 -69669-4 0  9994","MEAN_ELEMENT_THEORY":"SGP4","RA_OF_ASC_NODE":"2.3398","MEAN_MOTION_DOT":"-0.00001319","INCLINATION":"53.0559","OBJECT_TYPE":"PAYLOAD","SEMIMAJOR_AXIS":"6925.375","MEAN_ANOMALY":"317.5085","MEAN_MOTION":"15.06391392","COUNTRY_CODE":"US","FILE":"3725790","ARG_OF_PERICENTER":"42.6112","CLASSIFICATION_TYPE":"U","NORAD_CAT_ID":"45371","TLE_LINE2":"2 45371  53.0559   2.3398 0002679  42.6112 317.5085 15.06391392153944","SITE":"AFETR","MEAN_MOTION_DDOT":"0.0000000000000","LAUNCH_DATE":"2020-03-18","REV_AT_EPOCH":"15394","GP_ID":"221735859","TIME_SYSTEM":"UTC","OBJECT_ID":"2020-019M","BSTAR":"-0.00006966900000","APOAPSIS":"549.095","ECCENTRICITY":"0.00026790","EPOCH":"2022-12-29T09:21:25.698528","OBJECT_NAME":"STARLINK-1287","DECAY_DATE":null,"ELEMENT_SET_NO":"999","RCS_SIZE":"LARGE"},{"EPHEMERIS_TYPE":"0","CENTER_NAME":"EARTH","REF_FRAME":"TEME","PERIOD":"95.593","PERIAPSIS":"545.941","INCLINATION":"53.0577","MEAN_MOTION_DOT":"-0.00001107","TLE_LINE1":"1 45372U 20019N   22363.73730253 -.00001107  00000-0 -55444-4 0  9996","RA_OF_ASC_NODE":"0.7742","MEAN_ELEMENT_THEORY":"SGP4","MEAN_ANOMALY":"316.3305","MEAN_MOTION":"15.06388444","OBJECT_TYPE":"PAYLOAD","SEMIMAJOR_AXIS":"6925.384","ARG_OF_PERICENTER":"43.7833","CLASSIFICATION_TYPE":"U","COUNTRY_CODE":"US","FILE":"3726023","REV_AT_EPOCH":"15399","GP_ID":"221746934","TIME_SYSTEM":"UTC","NORAD_CAT_ID":"45372","MEAN_MOTION_DDOT":"0.0000000000000","LAUNCH_DATE":"2020-03-18","TLE_LINE2":"2 45372  53.0577   0.7742 0001888  43.7833 316.3305 15.06388444153994","SITE":"AFETR","BSTAR":"-0.00005544400000","OBJECT_ID":"2020-019N","APOAPSIS":"548.556","DECAY_DATE":null,"OBJECT_NAME":"STARLINK-1288","RCS_SIZE":"LARGE","ELEMENT_SET_NO":"999","ECCENTRICITY":"0.00018880","EPOCH":"2022-12-29T17:41:42.938592"},{"SEMIMAJOR_AXIS":"6925.341","OBJECT_TYPE":"PAYLOAD","MEAN_MOTION":"15.06402325","MEAN_ANOMALY":"314.5002","MEAN_ELEMENT_THEORY":"SGP4","RA_OF_ASC_NODE":"7.1193","TLE_LINE1":"1 45373U 20019P   22362.32557517 -.00000919  00000-0 -42768-4 0  9996","INCLINATION":"53.0560","MEAN_MOTION_DOT":"-0.00000919","PERIAPSIS":"545.699","PERIOD":"95.592","REF_FRAME":"TEME","CENTER_NAME":"EARTH","EPHEMERIS_TYPE":"0","EPOCH":"2022-12-28T07:48:49.694688","ECCENTRICITY":"0.00021760","RCS_SIZE":"LARGE","ELEMENT_SET_NO":"999","DECAY_DATE":null,"OBJECT_NAME":"STARLINK-1295","APOAPSIS":"548.713","BSTAR":"-0.00004276800000","OBJECT_ID":"2020-019P","MEAN_MOTION_DDOT":"0.0000000000000","LAUNCH_DATE":"2020-03-18","SITE":"AFETR","TLE_LINE2":"2 45373  53.0560   7.1193 0002176  45.6165 314.5002 15.06402325153784","NORAD_CAT_ID":"45373","TIME_SYSTEM":"UTC","GP_ID":"221734858","REV_AT_EPOCH":"15378","FILE":"3725790","COUNTRY_CODE":"US","CLASSIFICATION_TYPE":"U","ARG_OF_PERICENTER":"45.6165"},{"PERIAPSIS":"546.931","REF_FRAME":"TEME","PERIOD":"95.599","EPHEMERIS_TYPE":"0","CENTER_NAME":"EARTH","MEAN_MOTION":"15.06287629","MEAN_ANOMALY":"270.3825","SEMIMAJOR_AXIS":"6925.693","OBJECT_TYPE":"PAYLOAD","INCLINATION":"53.0535","MEAN_MOTION_DOT":"-0.00041986","MEAN_ELEMENT_THEORY":"SGP4","RA_OF_ASC_NODE":"0.8857","TLE_LINE1":"1 45374U 20019Q   22363.71519856 -.00041986  00000-0 -28251-2 0  9993","TIME_SYSTEM":"UTC","GP_ID":"221747458","REV_AT_EPOCH":"15399","MEAN_MOTION_DDOT":"0.0000000000000","LAUNCH_DATE":"2020-03-18","TLE_LINE2":"2 45374  53.0535   0.8857 0000905  89.7267 270.3825 15.06287629153997","SITE":"AFETR","NORAD_CAT_ID":"45374","CLASSIFICATION_TYPE":"U","ARG_OF_PERICENTER":"89.7267","FILE":"3726024","COUNTRY_CODE":"US","ELEMENT_SET_NO":"999","RCS_SIZE":"LARGE","DECAY_DATE":null,"OBJECT_NAME":"STARLINK-1300","EPOCH":"2022-12-29T17:09:53.155584","ECCENTRICITY":"0.00009050","APOAPSIS":"548.185","BSTAR":"-0.00282510000000","OBJECT_ID":"2020-019Q"},{"EPHEMERIS_TYPE":"0","CENTER_NAME":"EARTH","PERIOD":"95.593","REF_FRAME":"TEME","PERIAPSIS":"546.348","INCLINATION":"53.0549","MEAN_MOTION_DOT":"-0.00004715","TLE_LINE1":"1 45375U 20019R   22363.72992841 -.00004715  00000-0 -29799-3 0  9992","MEAN_ELEMENT_THEORY":"SGP4","RA_OF_ASC_NODE":"0.8105","MEAN_ANOMALY":"276.6701","MEAN_MOTION":"15.06380208","OBJECT_TYPE":"PAYLOAD","SEMIMAJOR_AXIS":"6925.409","ARG_OF_PERICENTER":"83.4440","CLASSIFICATION_TYPE":"U","COUNTRY_CODE":"US","FILE":"3726025","GP_ID":"221746974","REV_AT_EPOCH":"15399","TIME_SYSTEM":"UTC","NORAD_CAT_ID":"45375","MEAN_MOTION_DDOT":"0.0000000000000","LAUNCH_DATE":"2020-03-18","SITE":"AFETR","TLE_LINE2":"2 45375  53.0549   0.8105 0001337  83.4440 276.6701 15.06380208153992","BSTAR":"-0.00029799000000","OBJECT_ID":"2020-019R","APOAPSIS":"548.200","DECAY_DATE":null,"OBJECT_NAME":"STARLINK-1302","RCS_SIZE":"LARGE","ELEMENT_SET_NO":"999","ECCENTRICITY":"0.00013370","EPOCH":"2022-12-29T17:31:05.814624"}];
